STARLINK-31875          
1 59674U 24084W   26068.29206487 -.00000675  00000+0 -15010-4 0  9999
2 59674  43.0042  40.4650 0001101 280.4171  79.6557 15.27574094104357
FLOCK 4G-14             
1 62667U 25009BL  26068.75869712  .00011310  00000+0  42676-3 0  9993
2 62667  97.4064 151.1836 0003006 318.3639  41.7371 15.27197201 63711
